YOTSUBA-KULOVER         
1 65941U 98067XN  26050.51725500  .00136059  00000+0  92807-3 0  9995
2 65941  51.6244 151.0396 0005202 331.8921  28.1797 15.73892363 20632
BOTAN                   
1 65942U 98067XP  26050.53216288  .00518361  11850-3  13854-2 0  9999
2 65942  51.6151 145.8072 0009727 351.0195   9.0636 15.93841465 20702
E-KAGAKU-1              
1 65943U 98067XQ  26050.51896130  .00132220  00000+0  90890-3 0  9991
2 65943  51.6273 151.0652 0005333 343.3956  16.6867 15.73725053 20633
HRC MONOBLOCK CAMERA    
1 66052U 98067XR  26050.58486334  .00045037  00000+0  54438-3 0  9998
2 66052  51.6293 156.7651 0002427  24.6362 335.4747 15.60247063 19564
HTV-X1                  
1 66174U 25241A   26050.82880434  .00062824  00000+0  11723-2 0  9995
2 66174  51.6323 160.6397 0008552 112.9938 247.1953 15.48149648   518
SHENZHOU-22             
1 66645U 25272A   26050.92114559  .00023716  00000+0  28930-3 0  9997
2 66645  41.4674 316.2139 0004598 149.3373 210.7735 15.59901723267648
SOYUZ-MS 28             
1 66664U 25275A   26050.82880434  .00062824  00000+0  11723-2 0  9996
2 66664  51.6323 160.6397 0008552 112.9938 247.1953 15.48149648  1287
DUPLEX                  
1 66906U 98067XS  26050.85523141  .00031428  00000+0  46566-3 0  9996
2 66906  51.6297 158.5697 0001534  73.8689 286.2471 15.54966738 12359
ISS OBJECT XT           
1 66907U 98067XT  26050.65611026  .00112080  00000+0  11477-2 0  9991
2 66907  51.6270 157.2353 0003083 340.6201  19.4676 15.64126572 12350
ISS OBJECT XU           
1 66908U 98067XU  26050.84692049  .00110669  00000+0  11292-2 0  9993
2 66908  51.6269 156.2570 0003002 346.9926  13.0991 15.64224053 12389
SILVERSAT               
1 66909U 98067XV  26050.55500368  .00136429  00000+0  12932-2 0  9998
2 66909  51.6278 157.3089 0003840 338.0283  22.0547 15.65970316 12349
