CCSDS_OMM_VERS = 2.0
CREATION_DATE  = 
ORIGINATOR     = 

OBJECT_NAME    = YOTSUBA-KULOVER
OBJECT_ID      = 1998-067XN
CENTER_NAME    = EARTH
REF_FRAME      = TEME
TIME_SYSTEM    = UTC
MEAN_ELEMENT_THEORY = SGP/SGP4

EPOCH          = 2026-02-19T12:24:50.832000
MEAN_MOTION    = 15.73892363
ECCENTRICITY   = .0005202
INCLINATION    = 51.6244
RA_OF_ASC_NODE = 151.0396
ARG_OF_PERICENTER = 331.8921
MEAN_ANOMALY   = 28.1797

EPHEMERIS_TYPE = 0
CLASSIFICATION_TYPE = U
NORAD_CAT_ID   = 65941
ELEMENT_SET_NO = 999
REV_AT_EPOCH   = 2063
BSTAR          = .92807416E-3
MEAN_MOTION_DOT = .136059E-2
MEAN_MOTION_DDOT = 0

CCSDS_OMM_VERS = 2.0
CREATION_DATE  = 
ORIGINATOR     = 

OBJECT_NAME    = BOTAN
OBJECT_ID      = 1998-067XP
CENTER_NAME    = EARTH
REF_FRAME      = TEME
TIME_SYSTEM    = UTC
MEAN_ELEMENT_THEORY = SGP/SGP4

EPOCH          = 2026-02-19T12:46:18.872832
MEAN_MOTION    = 15.93841465
ECCENTRICITY   = .00097272
INCLINATION    = 51.6151
RA_OF_ASC_NODE = 145.8072
ARG_OF_PERICENTER = 351.0195
MEAN_ANOMALY   = 9.0636

EPHEMERIS_TYPE = 0
CLASSIFICATION_TYPE = U
NORAD_CAT_ID   = 65942
ELEMENT_SET_NO = 999
REV_AT_EPOCH   = 2070
BSTAR          = .13853563E-2
MEAN_MOTION_DOT = .518361E-2
MEAN_MOTION_DDOT = .11850449E-3

CCSDS_OMM_VERS = 2.0
CREATION_DATE  = 
ORIGINATOR     = 

OBJECT_NAME    = E-KAGAKU-1
OBJECT_ID      = 1998-067XQ
CENTER_NAME    = EARTH
REF_FRAME      = TEME
TIME_SYSTEM    = UTC
MEAN_ELEMENT_THEORY = SGP/SGP4

EPOCH          = 2026-02-19T12:27:18.256320
MEAN_MOTION    = 15.73725053
ECCENTRICITY   = .00053338
INCLINATION    = 51.6273
RA_OF_ASC_NODE = 151.0652
ARG_OF_PERICENTER = 343.3956
MEAN_ANOMALY   = 16.6867

EPHEMERIS_TYPE = 0
CLASSIFICATION_TYPE = U
NORAD_CAT_ID   = 65943
ELEMENT_SET_NO = 999
REV_AT_EPOCH   = 2063
BSTAR          = .90889832E-3
MEAN_MOTION_DOT = .13222E-2
MEAN_MOTION_DDOT = 0

CCSDS_OMM_VERS = 2.0
CREATION_DATE  = 
ORIGINATOR     = 

OBJECT_NAME    = HRC MONOBLOCK CAMERA
OBJECT_ID      = 1998-067XR
CENTER_NAME    = EARTH
REF_FRAME      = TEME
TIME_SYSTEM    = UTC
MEAN_ELEMENT_THEORY = SGP/SGP4

EPOCH          = 2026-02-19T14:02:12.192576
MEAN_MOTION    = 15.60247063
ECCENTRICITY   = .0002427
INCLINATION    = 51.6293
RA_OF_ASC_NODE = 156.7651
ARG_OF_PERICENTER = 24.6362
MEAN_ANOMALY   = 335.4747

EPHEMERIS_TYPE = 0
CLASSIFICATION_TYPE = U
NORAD_CAT_ID   = 66052
ELEMENT_SET_NO = 999
REV_AT_EPOCH   = 1956
BSTAR          = .54438E-3
MEAN_MOTION_DOT = .45037E-3
MEAN_MOTION_DDOT = 0

CCSDS_OMM_VERS = 2.0
CREATION_DATE  = 
ORIGINATOR     = 

OBJECT_NAME    = HTV-X1
OBJECT_ID      = 2025-241A
CENTER_NAME    = EARTH
REF_FRAME      = TEME
TIME_SYSTEM    = UTC
MEAN_ELEMENT_THEORY = SGP/SGP4

EPOCH          = 2026-02-19T19:53:28.694976
MEAN_MOTION    = 15.48149648
ECCENTRICITY   = .0008552
INCLINATION    = 51.6323
RA_OF_ASC_NODE = 160.6397
ARG_OF_PERICENTER = 112.9938
MEAN_ANOMALY   = 247.1953

EPHEMERIS_TYPE = 0
CLASSIFICATION_TYPE = U
NORAD_CAT_ID   = 66174
ELEMENT_SET_NO = 999
REV_AT_EPOCH   = 51
BSTAR          = .11723307E-2
MEAN_MOTION_DOT = .62824E-3
MEAN_MOTION_DDOT = 0

CCSDS_OMM_VERS = 2.0
CREATION_DATE  = 
ORIGINATOR     = 

OBJECT_NAME    = SHENZHOU-22
OBJECT_ID      = 2025-272A
CENTER_NAME    = EARTH
REF_FRAME      = TEME
TIME_SYSTEM    = UTC
MEAN_ELEMENT_THEORY = SGP/SGP4

EPOCH          = 2026-02-19T22:06:26.978976
MEAN_MOTION    = 15.59901723
ECCENTRICITY   = .00045981
INCLINATION    = 41.4674
RA_OF_ASC_NODE = 316.2139
ARG_OF_PERICENTER = 149.3373
MEAN_ANOMALY   = 210.7735

EPHEMERIS_TYPE = 0
CLASSIFICATION_TYPE = U
NORAD_CAT_ID   = 66645
ELEMENT_SET_NO = 999
REV_AT_EPOCH   = 26764
BSTAR          = .28930197E-3
MEAN_MOTION_DOT = .23716E-3
MEAN_MOTION_DDOT = 0

CCSDS_OMM_VERS = 2.0
CREATION_DATE  = 
ORIGINATOR     = 

OBJECT_NAME    = SOYUZ-MS 28
OBJECT_ID      = 2025-275A
CENTER_NAME    = EARTH
REF_FRAME      = TEME
TIME_SYSTEM    = UTC
MEAN_ELEMENT_THEORY = SGP/SGP4

EPOCH          = 2026-02-19T19:53:28.694976
MEAN_MOTION    = 15.48149648
ECCENTRICITY   = .0008552
INCLINATION    = 51.6323
RA_OF_ASC_NODE = 160.6397
ARG_OF_PERICENTER = 112.9938
MEAN_ANOMALY   = 247.1953

EPHEMERIS_TYPE = 0
CLASSIFICATION_TYPE = U
NORAD_CAT_ID   = 66664
ELEMENT_SET_NO = 999
REV_AT_EPOCH   = 55368
BSTAR          = .11723E-2
MEAN_MOTION_DOT = .62824E-3
MEAN_MOTION_DDOT = 0

CCSDS_OMM_VERS = 2.0
CREATION_DATE  = 
ORIGINATOR     = 

OBJECT_NAME    = DUPLEX
OBJECT_ID      = 1998-067XS
CENTER_NAME    = EARTH
REF_FRAME      = TEME
TIME_SYSTEM    = UTC
MEAN_ELEMENT_THEORY = SGP/SGP4

EPOCH          = 2026-02-19T20:31:31.993824
MEAN_MOTION    = 15.54966738
ECCENTRICITY   = .00015348
INCLINATION    = 51.6297
RA_OF_ASC_NODE = 158.5697
ARG_OF_PERICENTER = 73.8689
MEAN_ANOMALY   = 286.2471

EPHEMERIS_TYPE = 0
CLASSIFICATION_TYPE = U
NORAD_CAT_ID   = 66906
ELEMENT_SET_NO = 999
REV_AT_EPOCH   = 1235
BSTAR          = .46566264E-3
MEAN_MOTION_DOT = .31428E-3
MEAN_MOTION_DDOT = 0

CCSDS_OMM_VERS = 2.0
CREATION_DATE  = 
ORIGINATOR     = 

OBJECT_NAME    = ISS OBJECT XT
OBJECT_ID      = 1998-067XT
CENTER_NAME    = EARTH
REF_FRAME      = TEME
TIME_SYSTEM    = UTC
MEAN_ELEMENT_THEORY = SGP/SGP4

EPOCH          = 2026-02-19T15:44:47.926464
MEAN_MOTION    = 15.64126572
ECCENTRICITY   = .00030838
INCLINATION    = 51.6270
RA_OF_ASC_NODE = 157.2353
ARG_OF_PERICENTER = 340.6201
MEAN_ANOMALY   = 19.4676

EPHEMERIS_TYPE = 0
CLASSIFICATION_TYPE = U
NORAD_CAT_ID   = 66907
ELEMENT_SET_NO = 999
REV_AT_EPOCH   = 1235
BSTAR          = .11477376E-2
MEAN_MOTION_DOT = .11208E-2
MEAN_MOTION_DDOT = 0

CCSDS_OMM_VERS = 2.0
CREATION_DATE  = 
ORIGINATOR     = 

OBJECT_NAME    = ISS OBJECT XU
OBJECT_ID      = 1998-067XU
CENTER_NAME    = EARTH
REF_FRAME      = TEME
TIME_SYSTEM    = UTC
MEAN_ELEMENT_THEORY = SGP/SGP4

EPOCH          = 2026-02-19T20:19:33.930336
MEAN_MOTION    = 15.64224053
ECCENTRICITY   = .00030021
INCLINATION    = 51.6269
RA_OF_ASC_NODE = 156.2570
ARG_OF_PERICENTER = 346.9926
MEAN_ANOMALY   = 13.0991

EPHEMERIS_TYPE = 0
CLASSIFICATION_TYPE = U
NORAD_CAT_ID   = 66908
ELEMENT_SET_NO = 999
REV_AT_EPOCH   = 1238
BSTAR          = .11292141E-2
MEAN_MOTION_DOT = .110669E-2
MEAN_MOTION_DDOT = 0

CCSDS_OMM_VERS = 2.0
CREATION_DATE  = 
ORIGINATOR     = 

OBJECT_NAME    = SILVERSAT
OBJECT_ID      = 1998-067XV
CENTER_NAME    = EARTH
REF_FRAME      = TEME
TIME_SYSTEM    = UTC
MEAN_ELEMENT_THEORY = SGP/SGP4

EPOCH          = 2026-02-19T13:19:12.317952
MEAN_MOTION    = 15.65970316
ECCENTRICITY   = .000384
INCLINATION    = 51.6278
RA_OF_ASC_NODE = 157.3089
ARG_OF_PERICENTER = 338.0283
MEAN_ANOMALY   = 22.0547

EPHEMERIS_TYPE = 0
CLASSIFICATION_TYPE = U
NORAD_CAT_ID   = 66909
ELEMENT_SET_NO = 999
REV_AT_EPOCH   = 1234
BSTAR          = .12932E-2
MEAN_MOTION_DOT = .136429E-2
MEAN_MOTION_DDOT = 0

